ALOS (DAICHI)           
1 28931U 06002A   24258.15189022  .00007568  00000+0  13712-2 0  9991
2 28931  98.0435 209.3822 0001481 117.6636 242.4718 14.66563456994381
